STARLINK-1334           
1 45556U 20025AB  22098.54133696  .00000832  00000+0  74789-4 0  9993
2 45556  53.0567  31.3038 0001708  60.5925 299.5235 15.06397045109661
STARLINK-1336           
1 45557U 20025AC  22098.08428085  .00008415  00000+0  58302-3 0  9999
2 45557  53.0558  33.3386 0001642  80.7748 279.3427 15.06407914109592
STARLINK-1342           
1 45558U 20025AD  22098.51553213  .00005362  00000+0  37845-3 0  9997
2 45558  53.0556  31.4159 0001402  79.5205 280.5942 15.06411327109652
STARLINK-1344           
1 45559U 20025AE  22098.28701049  .00005600  00000+0  39444-3 0  9996
2 45559  53.0550  32.4247 0001542  65.9663 294.1487 15.06407603109622
STARLINK-1346           
1 45560U 20025AF  22098.47223135  .00003269  00000+0  23822-3 0  9996
2 45560  53.0560  21.6117 0001593  68.9890 291.1270 15.06401729109194
STARLINK-1348           
1 45561U 20025AG  22097.98672835  .00025716  00000+0  15404-2 0  9994
2 45561  53.0588 305.9350 0001733 110.3676 249.7502 15.10854262110819
STARLINK-1354           
1 45562U 20025AH  22098.22803202  .00005317  00000+0  37552-3 0  9991
2 45562  53.0548  32.6917 0001546  68.7919 291.3235 15.06408034109616
STARLINK-1355           
1 45563U 20025AJ  22098.50816034  .00006791  00000+0  47412-3 0  9993
2 45563  53.0540  31.4547 0001529  68.4478 291.6674 15.06419607109655
STARLINK-1356           
1 45564U 20025AK  22098.50447477  .00003525  00000+0  25542-3 0  9997
2 45564  53.0566  31.4524 0001484  69.3307 290.7841 15.06400199109056
STARLINK-1357           
1 45565U 20025AL  22098.82883523  .00003075  00000+0  22521-3 0  9993
2 45565  53.0554  30.0004 0001425  66.9701 293.1438 15.06406913109103
STARLINK-1358           
1 45566U 20025AM  22098.51184643  .00003560  00000+0  25779-3 0  9994
2 45566  53.0569  31.4339 0001511  61.7489 298.3653 15.06400887109658
STARLINK-1361           
1 45567U 20025AN  22098.52290147  .00005107  00000+0  36138-3 0  9993
2 45567  53.0551  31.3659 0001464  76.2395 283.8757 15.06410317109055
STARLINK-1363           
1 45568U 20025AP  22098.51458756  .00006193  00000+0  43410-3 0  9992
2 45568  53.0555  31.4155 0001517  76.5640 283.5518 15.06417223109658
STARLINK-1366           
1 45569U 20025AQ  22098.52658590  .00003422  00000+0  24848-3 0  9998
2 45569  53.0563  31.3588 0001676  57.9826 302.1325 15.06401938109652
STARLINK-1376           
1 45570U 20025AR  22098.51921852  .00001223  00000+0  10095-3 0  9999
2 45570  53.0562  31.3858 0001336  71.8956 288.2179 15.06399916109052
STARLINK-1261           
1 45571U 20025AS  22098.07046438  .00002771  00000+0  20486-3 0  9993
2 45571  53.0555  23.4211 0001405  61.8597 298.2534 15.06398161109740
STARLINK-1320           
1 45572U 20025AT  22098.12943365  .00001610  00000+0  12697-3 0  9991
2 45572  53.0549  23.1563 0001292  77.3773 282.7360 15.06400563109131
STARLINK-1321           
1 45573U 20025AU  22098.50540133  .00006792  00000+0  47419-3 0  9996
2 45573  53.0552  21.4582 0001457  58.9201 301.1931 15.06417135109191
STARLINK-1324           
1 45574U 20025AV  22098.79658278  .00007391  00000+0  51429-3 0  9990
2 45574  53.0559  20.1582 0001587  69.7478 290.3681 15.06417474109248
STARLINK-1326           
1 45575U 20025AW  22098.47507217  .00021152  00000+0  12405-2 0  9993
2 45575  53.0013  13.6167 0001836 107.4571 252.6621 15.11730745109881
STARLINK-1328           
1 45576U 20025AX  22098.75604366  .00001083  00000+0  91601-4 0  9996
2 45576  53.0557  20.3177 0001604  54.2929 305.8209 15.06404994109230
STARLINK-1330           
1 45577U 20025AY  22098.51277097  .00002565  00000+0  19098-3 0  9993
2 45577  53.0556  21.4123 0001525  58.6197 301.4941 15.06410782109798
STARLINK-1331           
1 45578U 20025AZ  22098.48329763  .00002839  00000+0  20944-3 0  9994
2 45578  53.0542  21.5547 0001480  69.0389 291.0758 15.06396514109802
STARLINK-1332           
1 45579U 20025BA  22098.40862482  .00003904  00000+0  28078-3 0  9997
2 45579  53.0548 341.8796 0001248 100.3503 259.7627 15.06408228110345
STARLINK-1333           
1 45580U 20025BB  22098.75511765  .00005128  00000+0  36276-3 0  9991
2 45580  53.0549  30.3247 0001609  57.1249 302.9894 15.06413592109093
STARLINK-1335           
1 45581U 20025BC  22098.49434039  .00004121  00000+0  29536-3 0  9994
2 45581  53.0561  21.5009 0001408  62.9453 297.1679 15.06406422109791
STARLINK-1337           
1 45582U 20025BD  22098.51646066  .00001418  00000+0  11411-3 0  9992
2 45582  53.0577  21.3998 0001669  59.9097 300.2057 15.06397360109799
STARLINK-1340           
1 45583U 20025BE  22098.49802441  .00004546  00000+0  32386-3 0  9990
2 45583  53.0552  21.4773 0001624  48.8941 311.2188 15.06405817109199
STARLINK-1343           
1 45584U 20025BF  22098.48697148  .00002525  00000+0  18837-3 0  9996
2 45584  53.0584  21.5337 0001551  71.7200 288.3958 15.06392915109197
STARLINK-1347           
1 45586U 20025BH  22098.50908646  .00006648  00000+0  46465-3 0  9997
2 45586  53.0562  21.4424 0001650  62.1830 297.9326 15.06408543109789
STARLINK-1349           
1 45587U 20025BJ  22098.47959798  .00003429  00000+0  24898-3 0  9998
2 45587  53.0572  21.5650 0001351  63.4672 296.6455 15.06398347109193
STARLINK-1360           
1 45588U 20025BK  22098.52382902  .00007949  00000+0  55168-3 0  9997
2 45588  53.0564  21.3799 0001687  88.9707 271.1475 15.06416842109797
STARLINK-1364           
1 45589U 20025BL  22098.78553254  .00002630  00000+0  19536-3 0  9997
2 45589  53.0555  20.1980 0001595  55.5265 304.5874 15.06406244109232
STARLINK-1365           
1 45590U 20025BM  22098.66850239  .00001031  00000+0  88124-4 0  9993
2 45590  53.0553  50.7295 0001514  55.4021 304.7111 15.06401072108802
G-SAT                   
1 45597U 98067RK  22098.72778562  .00685637  22704-3  12227-2 0  9994
2 45597  51.6265 267.0491 0010042 293.4122  66.5832 16.01100803110929
XINGYUN-2 01            
1 45602U 20028A   22098.88082839  .00001891  00000+0  15096-3 0  9998
2 45602  97.4558 119.1930 0011472  84.3283 275.9242 15.01380764104511
XINGYUN-2 02            
1 45603U 20028B   22098.84511770  .00001460  00000+0  11740-3 0  9990
2 45603  97.5599 120.9477 0013163  61.9409 298.3134 15.01445556104514
ULTP                    
1 45605U 20011D   22098.41912141  .00012126  00000+0  40330-3 0  9992
2 45605  51.6469  64.9590 0005773 318.3529  41.7012 15.31545085106323
COSMOS 2546             
1 45608U 20031A   22095.23174602 -.00000744  00000+0  00000+0 0  9996
2 45608  63.3180 228.5285 6674071 268.0902  17.3275  2.00554671 13689
XJS G                   
1 45611U 20032A   22098.67070916  .00012162  00000+0  36482-3 0  9998
2 45611  35.0323 174.6057 0007395 140.8472 219.2782 15.33622397104002
XJS H                   
1 45612U 20032B   22098.66841242  .00017376  00000+0  51757-3 0  9990
2 45612  35.0326 174.5930 0008096 154.2279 205.8844 15.33783032104002
HEAD-4                  
1 45624U 20034A   22098.80464792  .00013332  00000+0  48891-3 0  9995
2 45624  97.3724 241.5564 0013664  51.2860  54.6869 15.28012534103265
GAOFEN 9-02             
1 45625U 20034B   22098.75264443  .00007323  00000+0  30524-3 0  9998
2 45625  97.3763 239.8948 0012146  51.8752  62.1799 15.23931093103121
STARLINK-1441           
1 45658U 20035B   22098.77539287  .00003767  00000+0  27155-3 0  9992
2 45658  53.0551  10.2386 0001466  69.7268 290.3879 15.06413572102650
STARLINK-1442           
1 45659U 20035C   22098.44640397  .00003046  00000+0  22330-3 0  9992
2 45659  53.0557  11.7292 0001443  62.3768 297.7368 15.06402043103003
STARLINK-1443           
1 45660U 20035D   22098.45472353  .00002452  00000+0  18346-3 0  9992
2 45660  53.0564  11.6871 0001569  58.2198 301.8944 15.06397523103019
STARLINK-1444           
1 45661U 20035E   22098.47315502  .00003687  00000+0  26632-3 0  9995
2 45661  53.0564  11.5963 0001491  72.9381 287.1771 15.06398614103018
STARLINK-1445           
1 45662U 20035F   22098.48788898  .00007943  00000+0  55129-3 0  9991
2 45662  53.0544  11.5226 0001536  67.9282 292.1870 15.06416197103016
STARLINK-1446           
1 45663U 20035G   22098.49158139  .00006139  00000+0  43057-3 0  9995
2 45663  53.0547  11.5125 0001443  64.1224 295.9913 15.06406287103018
STARLINK-1448           
1 45665U 20035J   22098.65744551  .00004226  00000+0  30237-3 0  9995
2 45665  53.0552  10.7591 0001493  64.2314 295.8829 15.06407897102630
STARLINK-1449           
1 45666U 20035K   22098.46483339  .00003166  00000+0  23130-3 0  9995
2 45666  53.0566  11.6458 0001578  65.4357 294.6796 15.06404557103004
STARLINK-1450           
1 45667U 20035L   22098.46208993  .00001447  00000+0  11597-3 0  9991
2 45667  53.0560  11.6400 0001427  69.4960 290.6183 15.06410941103003
STARLINK-1451           
1 45668U 20035M   22098.16627828  .00013114  00000+0  89720-3 0  9998
2 45668  53.0571  12.9727 0001692  48.7847 311.3287 15.06418197102972
STARLINK-1452           
1 45669U 20035N   22098.48052232  .00011273  00000+0  77396-3 0  9995
2 45669  53.0548  11.5624 0001623  58.7412 301.3736 15.06425673103012
STARLINK-1453           
1 45670U 20035P   22098.80395717  .00004901  00000+0  34759-3 0  9997
2 45670  53.0575 340.1201 0001540  61.8373 298.2772 15.06411510103070
STARLINK-1454           
1 45671U 20035Q   22098.48421016  .00003892  00000+0  27995-3 0  9996
2 45671  53.0551  11.5444 0001600  63.2898 296.8254 15.06412665103002
STARLINK-1455           
1 45672U 20035R   22097.96357023  .00003820  00000+0  27520-3 0  9990
2 45672  53.0554 343.8928 0001564  57.8373 302.2767 15.06403063103351
STARLINK-1456           
1 45673U 20035S   22098.03453118  .00006155  00000+0  43161-3 0  9995
2 45673  53.0543  13.5586 0001995  47.0883 313.0273 15.06410396102950
STARLINK-1457           
1 45674U 20035T   22098.24093204  .00001768  00000+0  13755-3 0  9996
2 45674  53.0565  12.6390 0001406  60.8670 299.2460 15.06402180102957
